OBJECT_NAME,OBJECT_ID,EPOCH,MEAN_MOTION,ECCENTRICITY,INCLINATION,RA_OF_ASC_NODE,ARG_OF_PERICENTER,MEAN_ANOMALY,EPHEMERIS_TYPE,CLASSIFICATION_TYPE,NORAD_CAT_ID,ELEMENT_SET_NO,REV_AT_EPOCH,BSTAR,MEAN_MOTION_DOT,MEAN_MOTION_DDOT
CENTISPACE-1 S4,2022-108B,2026-06-15T01:44:25.524960,14.61930799,.0008442,53.5310,61.5311,337.2562,22.8039,0,U,53758,999,20125,.15344E-3,.584E-5,0
BLUEWALKER-3,2022-111AL,2026-06-14T23:17:49.470144,15.38247947,.0006501,53.2301,44.3776,154.1629,205.9702,0,U,53807,999,20986,.14567E-3,.5181E-4,0
YUNHAI-1 03,2022-115A,2026-06-15T03:53:31.367904,14.32716699,.0005849,98.5531,164.3350,60.5511,299.6256,0,U,53877,999,19522,.11528E-3,.27E-5,0
CENTISPACE-1 S5,2022-126A,2026-06-14T19:53:46.099392,14.63011439,.00145356,54.9979,222.3973,68.0840,292.1698,0,U,54020,999,19669,.13378581E-3,.502E-5,0
CENTISPACE-1 S6,2022-126B,2026-06-14T21:20:41.434944,14.62288962,.00163819,54.9982,224.0102,68.2024,292.0711,0,U,54021,999,19666,.10063195E-3,.323E-5,0
OTB-3-GAZELLE,2022-127A,2026-06-14T21:50:02.477760,14.42673745,.00128176,98.3943,157.6487,190.1623,169.9310,0,U,54023,999,19403,.50273075E-4,.124E-5,0
ASO-S,2022-129A,2026-06-14T23:30:58.714272,14.52060822,.0015753,98.2747,171.0919,98.8599,261.4381,0,U,54029,999,19510,.54943577E-4,.178E-5,0
HJ-2E,2022-132A,2026-06-15T04:21:25.098336,15.22288609,.0020795,97.3791,170.5939,22.0668,338.1459,0,U,54035,999,20411,.28524E-3,.6537E-4,0
COSMOS 2561,2022-137A,2026-06-15T05:27:26.388864,15.51659122,.0010898,96.9180,225.3016,42.7660,317.4439,0,U,54109,999,20604,.18747E-3,.11079E-3,0
GONETS-M 23,2022-139A,2026-06-15T04:04:34.804992,12.42890783,.0020819,82.5073,349.5483,224.2750,135.6665,0,U,54150,999,16539,.17055E-3,.33E-6,0
GONETS-M 24,2022-139B,2026-06-15T03:25:50.159424,12.42891418,.0015943,82.4989,348.6263,234.7510,125.2078,0,U,54151,999,16539,.15166E-3,.31E-6,0
GONETS-M 25,2022-139C,2026-06-15T03:06:13.667904,12.42889983,.0019863,82.5047,349.3200,233.5280,126.3969,0,U,54152,999,16539,.9866E-4,.23E-6,0
SKIF-D,2022-139D,2026-06-14T06:12:46.327392,5.00428248,.00073842,89.9512,96.6685,200.4465,159.5680,0,U,54153,999,6396,0,.4E-7,0
MATS,2022-147A,2026-06-14T23:43:11.470944,15.05344786,.0011769,97.6820,167.5947,198.3593,161.7210,0,U,54227,999,19743,.18747E-3,.2625E-4,0
JILIN-1 GAOFEN 03D54,2022-155D,2026-06-15T05:00:29.412000,15.97367336,.0005279,97.6113,319.0559,263.8870,96.1805,0,U,54254,999,19998,.7272E-3,.317969E-2,.43065E-4
EOS-6 (OCEANSAT-3),2022-158A,2026-06-15T03:46:39.042912,14.46999382,.0001319,98.3539,264.3784,50.3738,309.7570,0,U,54361,999,18754,.76628E-4,.235E-5,0
DONGPO 09,2022-167D,2026-06-15T04:41:29.978304,15.36295932,.0003511,97.6890,337.1133,120.6021,239.5569,0,U,54685,999,19514,.26931E-3,.9446E-4,0
DONGPO 08,2022-167E,2026-06-15T04:08:21.738912,15.33611533,.0008506,97.6855,334.2768,166.9959,193.1504,0,U,54686,999,19501,.3092E-3,.9976E-4,0
2022-167F,2022-167F,2026-06-15T04:46:11.029728,15.91907127,.0001429,97.6110,353.8710,227.8309,132.2843,0,U,54687,999,19651,.65409E-3,.213599E-2,.19165E-4
DONGPO 10,2022-167H,2026-06-15T04:19:27.496704,15.34418996,.0006254,97.6935,336.2315,115.7062,244.4826,0,U,54689,999,19505,.29716E-3,.9828E-4,0
JILIN-1 GAOFEN 03D48,2022-167P,2026-06-15T04:17:35.981088,15.35184590,.0007577,97.6870,335.6074,120.6829,239.5161,0,U,54695,999,19508,.3093E-3,.1049E-3,0
STAR VIBE,2023-001A,2026-06-15T03:49:34.542048,15.42569935,.0007138,97.3175,230.6149,118.2736,241.9233,0,U,55009,999,19191,.32006E-3,.13837E-3,0
BRO-8,2023-001C,2026-06-15T04:11:36.735936,15.48952548,.000678,97.3218,231.3293,129.1885,230.9969,0,U,55011,999,19189,.5549E-3,.29979E-3,0
CONNECTA T1.2,2023-001D,2026-06-15T04:05:22.413120,15.50584670,.0006654,97.3275,236.8249,108.5551,251.6424,0,U,55012,999,19223,.62247E-3,.35653E-3,0
BIRKELAND,2023-001G,2026-06-15T03:10:28.545312,15.40047964,.0008339,97.3351,234.0966,110.9650,249.2490,0,U,55015,999,19203,.22081E-3,.875E-4,0
ION SCV-008,2023-001AU,2026-06-15T00:17:34.757376,15.28554213,.0015224,97.5717,262.2934,26.0463,334.1539,0,U,55051,999,19100,.21838E-3,.6008E-4,0
ION SCV-007,2023-001BD,2026-06-15T03:59:31.420032,14.77551723,.0011972,97.9007,229.2214,349.0761,11.0188,0,U,55060,999,18595,.58383E-4,.366E-5,0
HUYGENS,2023-001CN,2026-06-15T03:10:36.044832,15.40047602,.0011154,97.3255,233.3292,92.5225,267.7298,0,U,55093,999,19205,.22679E-3,.8998E-4,0
SHARJAHSAT-1,2023-001CZ,2026-06-15T04:11:47.580000,15.48996346,.000713,97.3178,234.9128,109.0873,251.1151,0,U,55104,999,19218,.35524E-3,.19165E-3,0
HORUS 1,2023-025A,2026-06-15T04:22:27.281280,15.23586295,.0002398,97.3469,240.8202,120.5503,239.5971,0,U,55690,999,18374,.21814E-3,.515E-4,0
