CENTISPACE-1 S4         
1 53758U 22108B   26166.07251765  .00000584  00000+0  15344-3 0  9991
2 53758  53.5310  61.5311 0008442 337.2562  22.8039 14.61930799201253
BLUEWALKER-3            
1 53807U 22111AL  26165.97071146  .00005181  00000+0  14567-3 0  9995
2 53807  53.2301  44.3776 0006501 154.1629 205.9702 15.38247947209860
YUNHAI-1 03             
1 53877U 22115A   26166.16216861  .00000270  00000+0  11528-3 0  9991
2 53877  98.5531 164.3350 0005849  60.5511 299.6256 14.32716699195225
CENTISPACE-1 S5         
1 54020U 22126A   26165.82900578  .00000502  00000+0  13379-3 0  9995
2 54020  54.9979 222.3973 0014535  68.0840 292.1698 14.63011439196698
CENTISPACE-1 S6         
1 54021U 22126B   26165.88936846  .00000323  00000+0  10063-3 0  9997
2 54021  54.9982 224.0102 0016381  68.2024 292.0711 14.62288962196661
OTB-3-GAZELLE           
1 54023U 22127A   26165.90975090  .00000124  00000+0  50273-4 0  9994
2 54023  98.3943 157.6487 0012817 190.1623 169.9310 14.42673745194030
ASO-S                   
1 54029U 22129A   26165.97984623  .00000178  00000+0  54944-4 0  9999
2 54029  98.2747 171.0919 0015753  98.8599 261.4381 14.52060822195107
HJ-2E                   
1 54035U 22132A   26166.18154049  .00006537  00000+0  28524-3 0  9994
2 54035  97.3791 170.5939 0020795  22.0668 338.1459 15.22288609204110
COSMOS 2561             
1 54109U 22137A   26166.22738876  .00011079  00000+0  18747-3 0  9995
2 54109  96.9180 225.3016 0010898  42.7660 317.4439 15.51659122206044
GONETS-M 23             
1 54150U 22139A   26166.16984728  .00000033  00000+0  17055-3 0  9994
2 54150  82.5073 349.5483 0020819 224.2750 135.6665 12.42890783165390
GONETS-M 24             
1 54151U 22139B   26166.14294166  .00000031  00000+0  15166-3 0  9992
2 54151  82.4989 348.6263 0015943 234.7510 125.2078 12.42891418165393
GONETS-M 25             
1 54152U 22139C   26166.12932486  .00000023  00000+0  98660-4 0  9997
2 54152  82.5047 349.3200 0019863 233.5280 126.3969 12.42889983165390
SKIF-D                  
1 54153U 22139D   26165.25886953  .00000004  00000+0  00000+0 0  9993
2 54153  89.9512  96.6685 0007384 200.4465 159.5680  5.00428248 63968
MATS                    
1 54227U 22147A   26165.98832721  .00002625  00000+0  18747-3 0  9990
2 54227  97.6820 167.5947 0011769 198.3593 161.7210 15.05344786197430
JILIN-1 GAOFEN 03D54    
1 54254U 22155D   26166.20867375  .00317969  43065-4  72720-3 0  9992
2 54254  97.6113 319.0559 0005279 263.8870  96.1805 15.97367336199983
EOS-6 (OCEANSAT-3)      
1 54361U 22158A   26166.15739633  .00000235  00000+0  76628-4 0  9997
2 54361  98.3539 264.3784 0001319  50.3738 309.7570 14.46999382187543
DONGPO 09               
1 54685U 22167D   26166.19548586  .00009446  00000+0  26931-3 0  9999
2 54685  97.6890 337.1133 0003511 120.6021 239.5569 15.36295932195146
DONGPO 08               
1 54686U 22167E   26166.17247383  .00009976  00000+0  30920-3 0  9990
2 54686  97.6855 334.2768 0008506 166.9959 193.1504 15.33611533195018
2022-167F               
1 54687U 22167F   26166.19873877  .00213599  19165-4  65409-3 0  9991
2 54687  97.6110 353.8710 0001429 227.8309 132.2843 15.91907127196517
DONGPO 10               
1 54689U 22167H   26166.18017936  .00009828  00000+0  29716-3 0  9990
2 54689  97.6935 336.2315 0006254 115.7062 244.4826 15.34418996195055
JILIN-1 GAOFEN 03D48    
1 54695U 22167P   26166.17888867  .00010490  00000+0  30930-3 0  9992
2 54695  97.6870 335.6074 0007577 120.6829 239.5161 15.35184590195081
STAR VIBE               
1 55009U 23001A   26166.15942757  .00013837  00000+0  32006-3 0  9991
2 55009  97.3175 230.6149 0007138 118.2736 241.9233 15.42569935191919
BRO-8                   
1 55011U 23001C   26166.17473074  .00029979  00000+0  55490-3 0  9993
2 55011  97.3218 231.3293 0006780 129.1885 230.9969 15.48952548191899
CONNECTA T1.2           
1 55012U 23001D   26166.17039830  .00035653  00000+0  62247-3 0  9996
2 55012  97.3275 236.8249 0006654 108.5551 251.6424 15.50584670192230
BIRKELAND               
1 55015U 23001G   26166.13227483  .00008750  00000+0  22081-3 0  9998
2 55015  97.3351 234.0966 0008339 110.9650 249.2490 15.40047964192036
ION SCV-008             
1 55051U 23001AU  26166.01220784  .00006008  00000+0  21838-3 0  9995
2 55051  97.5717 262.2934 0015224  26.0463 334.1539 15.28554213191002
ION SCV-007             
1 55060U 23001BD  26166.16633588  .00000366  00000+0  58383-4 0  9998
2 55060  97.9007 229.2214 0011972 349.0761  11.0188 14.77551723185951
HUYGENS                 
1 55093U 23001CN  26166.13236163  .00008998  00000+0  22679-3 0  9996
2 55093  97.3255 233.3292 0011154  92.5225 267.7298 15.40047602192053
SHARJAHSAT-1            
1 55104U 23001CZ  26166.17485625  .00019165  00000+0  35524-3 0  9993
2 55104  97.3178 234.9128 0007130 109.0873 251.1151 15.48996346192182
HORUS 1                 
1 55690U 23025A   26166.18226020  .00005150  00000+0  21814-3 0  9998
2 55690  97.3469 240.8202 0002398 120.5503 239.5971 15.23586295183746
